start=new Date('2022-03-26T00:00:00.000Z').valueOf();
sats=[{"FILE":"3373822","CENTER_NAME":"EARTH","LAUNCH_DATE":"2020-10-18","EPOCH":"2022-03-25T14:18:17.613216","COUNTRY_CODE":"US","GP_ID":"199661525","MEAN_ANOMALY":"291.8955","TIME_SYSTEM":"UTC","TLE_LINE1":"1 46711U 20073AT  22084.59603719  .00001870  00000-0  14439-3 0  9997","DECAY_DATE":null,"ECCENTRICITY":"0.00014590","TLE_LINE2":"2 46711  53.0547 248.9013 0001459  68.2189 291.8955 15.06407158 79322","PERIOD":"95.592","SEMIMAJOR_AXIS":"6925.327","MEAN_ELEMENT_THEORY":"SGP4","RA_OF_ASC_NODE":"248.9013","SITE":"AFETR","APOAPSIS":"548.202","MEAN_MOTION_DDOT":"0.0000000000000","ELEMENT_SET_NO":"999","RCS_SIZE":"LARGE","OBJECT_ID":"2020-073AT","EPHEMERIS_TYPE":"0","REF_FRAME":"TEME","ARG_OF_PERICENTER":"68.2189","MEAN_MOTION":"15.06407158","NORAD_CAT_ID":"46711","REV_AT_EPOCH":"7932","PERIAPSIS":"546.181","INCLINATION":"53.0547","BSTAR":"0.00014439000000","MEAN_MOTION_DOT":"0.00001870","OBJECT_NAME":"STARLINK-1813","CLASSIFICATION_TYPE":"U","OBJECT_TYPE":"PAYLOAD"},{"NORAD_CAT_ID":"46712","PERIAPSIS":"546.171","REV_AT_EPOCH":"7983","INCLINATION":"53.0534","BSTAR":"0.00000179330000","OBJECT_NAME":"STARLINK-1814","MEAN_MOTION_DOT":"-0.00000255","CLASSIFICATION_TYPE":"U","OBJECT_TYPE":"PAYLOAD","ELEMENT_SET_NO":"999","RCS_SIZE":"LARGE","EPHEMERIS_TYPE":"0","OBJECT_ID":"2020-073AU","REF_FRAME":"TEME","ARG_OF_PERICENTER":"71.1108","MEAN_MOTION":"15.06399671","SEMIMAJOR_AXIS":"6925.350","MEAN_ELEMENT_THEORY":"SGP4","RA_OF_ASC_NODE":"247.8566","APOAPSIS":"548.258","SITE":"AFETR","MEAN_MOTION_DDOT":"0.0000000000000","FILE":"3374081","CENTER_NAME":"EARTH","COUNTRY_CODE":"US","LAUNCH_DATE":"2020-10-18","EPOCH":"2022-03-25T19:51:20.853216","GP_ID":"199670886","MEAN_ANOMALY":"289.0044","TIME_SYSTEM":"UTC","TLE_LINE1":"1 46712U 20073AU  22084.82732469 -.00000255  00000-0  17933-5 0  9990","DECAY_DATE":null,"ECCENTRICITY":"0.00015070","TLE_LINE2":"2 46712  53.0534 247.8566 0001507  71.1108 289.0044 15.06399671 79832","PERIOD":"95.592"},{"RA_OF_ASC_NODE":"247.8008","MEAN_ELEMENT_THEORY":"SGP4","SEMIMAJOR_AXIS":"6925.328","MEAN_MOTION_DDOT":"0.0000000000000","APOAPSIS":"548.324","SITE":"AFETR","LAUNCH_DATE":"2020-10-18","COUNTRY_CODE":"US","EPOCH":"2022-03-25T20:08:36.786624","GP_ID":"199671399","CENTER_NAME":"EARTH","FILE":"3374082","TLE_LINE2":"2 46713  53.0526 247.8008 0001632  70.4926 289.6239 15.06406574 79837","PERIOD":"95.592","DECAY_DATE":null,"ECCENTRICITY":"0.00016320","TLE_LINE1":"1 46713U 20073AV  22084.83931466  .00002747  00000-0  20318-3 0  9996","MEAN_ANOMALY":"289.6239","TIME_SYSTEM":"UTC","BSTAR":"0.00020318000000","INCLINATION":"53.0526","NORAD_CAT_ID":"46713","PERIAPSIS":"546.063","REV_AT_EPOCH":"7983","OBJECT_TYPE":"PAYLOAD","MEAN_MOTION_DOT":"0.00002747","CLASSIFICATION_TYPE":"U","OBJECT_NAME":"STARLINK-1815","RCS_SIZE":"LARGE","ELEMENT_SET_NO":"999","MEAN_MOTION":"15.06406574","REF_FRAME":"TEME","ARG_OF_PERICENTER":"70.4926","OBJECT_ID":"2020-073AV","EPHEMERIS_TYPE":"0"},{"FILE":"3373822","GP_ID":"199663277","LAUNCH_DATE":"2020-10-18","COUNTRY_CODE":"US","EPOCH":"2022-03-25T03:57:17.850816","CENTER_NAME":"EARTH","TLE_LINE1":"1 46714U 20073AW  22084.16478994  .00000417  00000-0  46909-4 0  9992","MEAN_ANOMALY":"293.7426","TIME_SYSTEM":"UTC","PERIOD":"95.592","TLE_LINE2":"2 46714  53.0524 250.8388 0001601  66.3731 293.7426 15.06401455 79258","DECAY_DATE":null,"ECCENTRICITY":"0.00016010","MEAN_ELEMENT_THEORY":"SGP4","SEMIMAJOR_AXIS":"6925.344","RA_OF_ASC_NODE":"250.8388","SITE":"AFETR","APOAPSIS":"548.318","MEAN_MOTION_DDOT":"0.0000000000000","ELEMENT_SET_NO":"999","RCS_SIZE":"LARGE","ARG_OF_PERICENTER":"66.3731","REF_FRAME":"TEME","EPHEMERIS_TYPE":"0","OBJECT_ID":"2020-073AW","MEAN_MOTION":"15.06401455","INCLINATION":"53.0524","PERIAPSIS":"546.100","REV_AT_EPOCH":"7925","NORAD_CAT_ID":"46714","BSTAR":"0.00004690900000","OBJECT_NAME":"STARLINK-1816","MEAN_MOTION_DOT":"0.00000417","CLASSIFICATION_TYPE":"U","OBJECT_TYPE":"PAYLOAD"},{"BSTAR":"0.00010584000000","NORAD_CAT_ID":"46715","PERIAPSIS":"546.142","REV_AT_EPOCH":"7983","INCLINATION":"53.0552","OBJECT_TYPE":"PAYLOAD","OBJECT_NAME":"STARLINK-1817","MEAN_MOTION_DOT":"0.00001295","CLASSIFICATION_TYPE":"U","RCS_SIZE":"LARGE","ELEMENT_SET_NO":"999","MEAN_MOTION":"15.06390314","EPHEMERIS_TYPE":"0","OBJECT_ID":"2020-073AX","ARG_OF_PERICENTER":"65.5775","REF_FRAME":"TEME","RA_OF_ASC_NODE":"247.8761","SEMIMAJOR_AXIS":"6925.378","MEAN_ELEMENT_THEORY":"SGP4","MEAN_MOTION_DDOT":"0.0000000000000","APOAPSIS":"548.344","SITE":"AFETR","CENTER_NAME":"EARTH","LAUNCH_DATE":"2020-10-18","EPOCH":"2022-03-25T19:47:24.088704","COUNTRY_CODE":"US","GP_ID":"199670904","FILE":"3374082","DECAY_DATE":null,"ECCENTRICITY":"0.00015900","TLE_LINE2":"2 46715  53.0552 247.8761 0001590  65.5775 294.5380 15.06390314 79830","PERIOD":"95.593","MEAN_ANOMALY":"294.5380","TIME_SYSTEM":"UTC","TLE_LINE1":"1 46715U 20073AX  22084.82458436  .00001295  00000-0  10584-3 0  9999"},{"OBJECT_ID":"2020-073AY","EPHEMERIS_TYPE":"0","REF_FRAME":"TEME","ARG_OF_PERICENTER":"67.9890","MEAN_MOTION":"15.06407623","ELEMENT_SET_NO":"999","RCS_SIZE":"LARGE","CLASSIFICATION_TYPE":"U","MEAN_MOTION_DOT":"0.00002053","OBJECT_NAME":"STARLINK-1818","OBJECT_TYPE":"PAYLOAD","NORAD_CAT_ID":"46716","PERIAPSIS":"546.079","REV_AT_EPOCH":"7961","INCLINATION":"53.0519","BSTAR":"0.00015663000000","MEAN_ANOMALY":"292.1269","TIME_SYSTEM":"UTC","TLE_LINE1":"1 46716U 20073AY  22084.77342737  .00002053  00000-0  15663-3 0  9996","DECAY_DATE":null,"ECCENTRICITY":"0.00016050","TLE_LINE2":"2 46716  53.0519 263.1096 0001605  67.9890 292.1269 15.06407623 79615","PERIOD":"95.592","FILE":"3374082","CENTER_NAME":"EARTH","LAUNCH_DATE":"2020-10-18","EPOCH":"2022-03-25T18:33:44.124768","COUNTRY_CODE":"US","GP_ID":"199670906","SITE":"AFETR","APOAPSIS":"548.302","MEAN_MOTION_DDOT":"0.0000000000000","SEMIMAJOR_AXIS":"6925.325","MEAN_ELEMENT_THEORY":"SGP4","RA_OF_ASC_NODE":"263.1096"},{"RCS_SIZE":"LARGE","ELEMENT_SET_NO":"999","MEAN_MOTION":"15.06401665","ARG_OF_PERICENTER":"77.1394","REF_FRAME":"TEME","OBJECT_ID":"2020-073AZ","EPHEMERIS_TYPE":"0","BSTAR":"0.00015112000000","INCLINATION":"53.0553","PERIAPSIS":"546.244","REV_AT_EPOCH":"7983","NORAD_CAT_ID":"46717","OBJECT_TYPE":"PAYLOAD","MEAN_MOTION_DOT":"0.00001970","CLASSIFICATION_TYPE":"U","OBJECT_NAME":"STARLINK-1820","GP_ID":"199671408","LAUNCH_DATE":"2020-10-18","EPOCH":"2022-03-25T20:13:55.465248","COUNTRY_CODE":"US","CENTER_NAME":"EARTH","FILE":"3374082","PERIOD":"95.592","TLE_LINE2":"2 46717  53.0553 247.7843 0001393  77.1394 282.9751 15.06401665 79835","DECAY_DATE":null,"ECCENTRICITY":"0.00013930","TLE_LINE1":"1 46717U 20073AZ  22084.84300307  .00001970  00000-0  15112-3 0  9998","MEAN_ANOMALY":"282.9751","TIME_SYSTEM":"UTC","RA_OF_ASC_NODE":"247.7843","MEAN_ELEMENT_THEORY":"SGP4","SEMIMAJOR_AXIS":"6925.343","MEAN_MOTION_DDOT":"0.0000000000000","SITE":"AFETR","APOAPSIS":"548.173"},{"RA_OF_ASC_NODE":"263.1949","MEAN_ELEMENT_THEORY":"SGP4","SEMIMAJOR_AXIS":"6925.344","MEAN_MOTION_DDOT":"0.0000000000000","APOAPSIS":"548.258","SITE":"AFETR","CENTER_NAME":"EARTH","GP_ID":"199670929","LAUNCH_DATE":"2020-10-18","COUNTRY_CODE":"US","EPOCH":"2022-03-25T18:01:54.016896","FILE":"3374083","DECAY_DATE":null,"ECCENTRICITY":"0.00015150","PERIOD":"95.592","TLE_LINE2":"2 46718  53.0523 263.1949 0001515  64.0027 296.1117 15.06401623 79619","TIME_SYSTEM":"UTC","MEAN_ANOMALY":"296.1117","TLE_LINE1":"1 46718U 20073BA  22084.75131964  .00002317  00000-0  17440-3 0  9992","BSTAR":"0.00017440000000","PERIAPSIS":"546.159","REV_AT_EPOCH":"7961","NORAD_CAT_ID":"46718","INCLINATION":"53.0523","OBJECT_TYPE":"PAYLOAD","MEAN_MOTION_DOT":"0.00002317","CLASSIFICATION_TYPE":"U","OBJECT_NAME":"STARLINK-1821","RCS_SIZE":"LARGE","ELEMENT_SET_NO":"999","MEAN_MOTION":"15.06401623","OBJECT_ID":"2020-073BA","EPHEMERIS_TYPE":"0","ARG_OF_PERICENTER":"64.0027","REF_FRAME":"TEME"},{"CENTER_NAME":"EARTH","COUNTRY_CODE":"US","LAUNCH_DATE":"2020-10-18","EPOCH":"2022-03-25T19:12:52.593408","GP_ID":"199670927","FILE":"3374083","ECCENTRICITY":"0.00013110","DECAY_DATE":null,"TLE_LINE2":"2 46719  53.0547 227.9834 0001311  62.5032 297.6090 15.06404971 80112","PERIOD":"95.592","MEAN_ANOMALY":"297.6090","TIME_SYSTEM":"UTC","TLE_LINE1":"1 46719U 20073BB  22084.80060872  .00000056  00000-0  22640-4 0  9995","RA_OF_ASC_NODE":"227.9834","SEMIMAJOR_AXIS":"6925.333","MEAN_ELEMENT_THEORY":"SGP4","MEAN_MOTION_DDOT":"0.0000000000000","SITE":"AFETR","APOAPSIS":"548.106","RCS_SIZE":"LARGE","ELEMENT_SET_NO":"999","MEAN_MOTION":"15.06404971","EPHEMERIS_TYPE":"0","OBJECT_ID":"2020-073BB","REF_FRAME":"TEME","ARG_OF_PERICENTER":"62.5032","BSTAR":"0.00002264000000","NORAD_CAT_ID":"46719","PERIAPSIS":"546.290","REV_AT_EPOCH":"8011","INCLINATION":"53.0547","OBJECT_TYPE":"PAYLOAD","OBJECT_NAME":"STARLINK-1822","MEAN_MOTION_DOT":"0.00000056","CLASSIFICATION_TYPE":"U"},{"CLASSIFICATION_TYPE":"U","MEAN_MOTION_DOT":"0.00040346","OBJECT_NAME":"STARLINK-1823","OBJECT_TYPE":"PAYLOAD","REV_AT_EPOCH":"8038","PERIAPSIS":"388.434","NORAD_CAT_ID":"46720","INCLINATION":"53.0530","BSTAR":"0.00051216000000","EPHEMERIS_TYPE":"0","OBJECT_ID":"2020-073BC","ARG_OF_PERICENTER":"25.3755","REF_FRAME":"TEME","MEAN_MOTION":"15.59039296","ELEMENT_SET_NO":"999","RCS_SIZE":"LARGE","APOAPSIS":"392.442","SITE":"AFETR","MEAN_MOTION_DDOT":"0.0000000000000","MEAN_ELEMENT_THEORY":"SGP4","SEMIMAJOR_AXIS":"6768.573","RA_OF_ASC_NODE":"172.7598","MEAN_ANOMALY":"334.7402","TIME_SYSTEM":"UTC","TLE_LINE1":"1 46720U 20073BC  22084.49392781  .00040346  00000-0  51216-3 0  9995","DECAY_DATE":null,"ECCENTRICITY":"0.00029610","PERIOD":"92.365","TLE_LINE2":"2 46720  53.0530 172.7598 0002961  25.3755 334.7402 15.59039296 80382","FILE":"3373822","CENTER_NAME":"EARTH","GP_ID":"199661776","EPOCH":"2022-03-25T11:51:15.362784","LAUNCH_DATE":"2020-10-18","COUNTRY_CODE":"US"}];
